{
    "links": {
        "self": "http://www.neowsapp.com/rest/v1/neo/3869352?api_key=iIulBulltgU6a56xZRHN4H3l9WmuAYTsLGpBGhQ2"
    },
    "id": "3869352",
    "neo_reference_id": "3869352",
    "name": "(2019 SE7)",
    "designation": "2019 SE7",
    "nasa_jpl_url": "http://ssd.jpl.nasa.gov/sbdb.cgi?sstr=3869352",
    "absolute_magnitude_h": 23.9,
    "estimated_diameter": {
        "kilometers": {
            "estimated_diameter_min": 0.04411182,
            "estimated_diameter_max": 0.0986370281
        },
        "meters": {
            "estimated_diameter_min": 44.1118199997,
            "estimated_diameter_max": 98.6370281305
        },
        "miles": {
            "estimated_diameter_min": 0.0274098057,
            "estimated_diameter_max": 0.0612901888
        },
        "feet": {
            "estimated_diameter_min": 144.7238235278,
            "estimated_diameter_max": 323.6123073718
        }
    },
    "is_potentially_hazardous_asteroid": false,
    "close_approach_data": [
        {
            "close_approach_date": "2019-04-07",
            "close_approach_date_full": "2019-Apr-07 07:51",
            "epoch_date_close_approach": 1554623460000,
            "relative_velocity": {
                "kilometers_per_second": "16.6199747723",
                "kilometers_per_hour": "59831.9091802534",
                "miles_per_hour": "37177.2215681413"
            },
            "miss_distance": {
                "astronomical": "0.1487168836",
                "lunar": "57.8508677204",
                "kilometers": "22247729.019597932",
                "miles": "13824097.7808461816"
            },
            "orbiting_body": "Earth"
        },
        {
            "close_approach_date": "2019-09-30",
            "close_approach_date_full": "2019-Sep-30 00:24",
            "epoch_date_close_approach": 1569803040000,
            "relative_velocity": {
                "kilometers_per_second": "16.7762000807",
                "kilometers_per_hour": "60394.3202904296",
                "miles_per_hour": "37526.6819604617"
            },
            "miss_distance": {
                "astronomical": "0.191995259",
                "lunar": "74.686155751",
                "kilometers": "28722081.79649833",
                "miles": "17847074.048523754"
            },
            "orbiting_body": "Earth"
        }
    ],
    "orbital_data": {
        "orbit_id": "2",
        "orbit_determination_date": "2019-10-07 05:57:50",
        "first_observation_date": "2019-09-28",
        "last_observation_date": "2019-10-07",
        "data_arc_in_days": 9,
        "observations_used": 22,
        "orbit_uncertainty": "8",
        "minimum_orbit_intersection": ".0908803",
        "jupiter_tisserand_invariant": "5.148",
        "epoch_osculation": "2458755.5",
        "eccentricity": ".1941686226701982",
        "semi_major_axis": "1.194930427539502",
        "inclination": "32.3942000504602",
        "ascending_node_longitude": "192.5037459596696",
        "orbital_period": "477.1032302657266",
        "perihelion_distance": ".9629124322374456",
        "perihelion_argument": "76.03406648325685",
        "aphelion_distance": "1.426948422841558",
        "perihelion_time": "2458655.926349267765",
        "mean_anomaly": "75.133664979882",
        "mean_motion": ".754553683905043",
        "equinox": "J2000",
        "orbit_class": {
            "orbit_class_type": "APO",
            "orbit_class_description": "Near-Earth asteroid orbits which cross the Earth’s orbit similar to that of 1862 Apollo",
            "orbit_class_range": "a (semi-major axis) > 1.0 AU; q (perihelion) < 1.017 AU"
        }
    },
    "is_sentry_object": false
}